{"type": "FeatureCollection", "features": [ {"type": "Feature", "properties": {"norad_id": 30295, "name": "FENGYUN 1C DEB", "group": "fengyun-1c-debris", "lat": -48.11574614776903, "lon": 173.80445720056312, "alt_km": 857.6093304195347, "timestamp": "2025-12-06T18:50:10.443737+00:00", "meta": {"OBJECT_NAME": "FENGYUN 1C DEB", "OBJECT_ID": "1999-025ZG", "EPOCH": "2025-12-06T07:45:27.806400", "MEAN_MOTION": 14.25036541, "ECCENTRICITY": 0.00945045, "INCLINATION": 98.5087, "RA_OF_ASC_NODE": 2.9667, "ARG_OF_PERICENTER": 101.0131, "MEAN_ANOMALY": 280.1477, "EPHEMERIS_TYPE": 0, "CLASSIFICATION_TYPE": "U", "NORAD_CAT_ID": 30295, "ELEMENT_SET_NO": 999, "REV_AT_EPOCH": 98085, "BSTAR": 0.00029652376, "MEAN_MOTION_DOT": 6.86e-06, "MEAN_MOTION_DDOT": 0}, "tle": {"line1": "1 30295U 99025ZG  25340.32323850  .00000686  00000+0  29652-3 0  9990", "line2": "2 30295  98.5087   2.9667 0094504 101.0131 280.1477 14.25036541980857"}}, "geometry": {"type": "Point", "coordinates": [173.80445720056312, -48.11574614776903]}}, {"type": "Feature", "properties": {"norad_id": 30297, "name": "FENGYUN 1C DEB", "group": "fengyun-1c-debris", "lat": -61.62589126327262, "lon": 95.64280729722773, "alt_km": 911.1017665136778, "timestamp": "2025-12-06T18:50:10.443747+00:00", "meta": {"OBJECT_NAME": "FENGYUN 1C DEB", "OBJECT_ID": "1999-025ZJ", "EPOCH": "2025-12-06T02:50:14.256384", "MEAN_MOTION": 14.21698499, "ECCENTRICITY": 0.03795511, "INCLINATION": 98.8112, "RA_OF_ASC_NODE": 291.6644, "ARG_OF_PERICENTER": 134.7411, "MEAN_ANOMALY": 294.0594, "EPHEMERIS_TYPE": 0, "CLASSIFICATION_TYPE": "U", "NORAD_CAT_ID": 30297, "ELEMENT_SET_NO": 999, "REV_AT_EPOCH": 95058, "BSTAR": 0.0016891009, "MEAN_MOTION_DOT": 7.73e-05, "MEAN_MOTION_DDOT": 0}, "tle": {"line1": "1 30297U 99025ZJ  25340.11822056  .00007730  00000+0  16891-2 0  9998", "line2": "2 30297  98.8112 291.6644 0379551 134.7411 294.0594 14.21698499950588"}}, "geometry": {"type": "Point", "coordinates": [95.64280729722773, -61.62589126327262]}}, {"type": "Feature", "properties": {"norad_id": 30298, "name": "FENGYUN 1C DEB", "group": "fengyun-1c-debris", "lat": -18.20244108756746, "lon": 74.61130855110275, "alt_km": 864.5452577650976, "timestamp": "2025-12-06T18:50:10.443757+00:00", "meta": {"OBJECT_NAME": "FENGYUN 1C DEB", "OBJECT_ID": "1999-025ZK", "EPOCH": "2025-12-06T01:09:07.155936", "MEAN_MOTION": 14.19851374, "ECCENTRICITY": 0.00490895, "INCLINATION": 99.0021, "RA_OF_ASC_NODE": 70.8742, "ARG_OF_PERICENTER": 146.6159, "MEAN_ANOMALY": 30.9679, "EPHEMERIS_TYPE": 0, "CLASSIFICATION_TYPE": "U", "NORAD_CAT_ID": 30298, "ELEMENT_SET_NO": 999, "REV_AT_EPOCH": 96739, "BSTAR": 0.0030778253, "MEAN_MOTION_DOT": 6.567e-05, "MEAN_MOTION_DDOT": 0}, "tle": {"line1": "1 30298U 99025ZK  25340.04799949  .00006567  00000+0  30778-2 0  9992", "line2": "2 30298  99.0021  70.8742 0049089 146.6159  30.9679 14.19851374967396"}}, "geometry": {"type": "Point", "coordinates": [74.61130855110275, -18.20244108756746]}}, {"type": "Feature", "properties": {"norad_id": 30299, "name": "FENGYUN 1C DEB", "group": "fengyun-1c-debris", "lat": 74.09992221575305, "lon": -92.81103973163773, "alt_km": 843.9586201695338, "timestamp": "2025-12-06T18:50:10.443767+00:00", "meta": {"OBJECT_NAME": "FENGYUN 1C DEB", "OBJECT_ID": "1999-025ZL", "EPOCH": "2025-12-05T17:21:13.437216", "MEAN_MOTION": 14.07700716, "ECCENTRICITY": 0.01034901, "INCLINATION": 99.0946, "RA_OF_ASC_NODE": 51.9045, "ARG_OF_PERICENTER": 27.8824, "MEAN_ANOMALY": 96.2131, "EPHEMERIS_TYPE": 0, "CLASSIFICATION_TYPE": "U", "NORAD_CAT_ID": 30299, "ELEMENT_SET_NO": 999, "REV_AT_EPOCH": 96191, "BSTAR": 0.0025414779, "MEAN_MOTION_DOT": 4.47e-05, "MEAN_MOTION_DDOT": 0}, "tle": {"line1": "1 30299U 99025ZL  25339.72307219  .00004470  00000+0  25415-2 0  9994", "line2": "2 30299  99.0946  51.9045 0103490  27.8824  96.2131 14.07700716961915"}}, "geometry": {"type": "Point", "coordinates": [-92.81103973163773, 74.09992221575305]}}, {"type": "Feature", "properties": {"norad_id": 30300, "name": "FENGYUN 1C DEB", "group": "fengyun-1c-debris", "lat": -44.86518750930425, "lon": -139.18981115891253, "alt_km": 805.6669666210091, "timestamp": "2025-12-06T18:50:10.443778+00:00", "meta": {"OBJECT_NAME": "FENGYUN 1C DEB", "OBJECT_ID": "1999-025ZM", "EPOCH": "2025-12-03T04:14:43.233792", "MEAN_MOTION": 14.26675343, "ECCENTRICITY": 0.00743476, "INCLINATION": 99.0438, "RA_OF_ASC_NODE": 46.2048, "ARG_OF_PERICENTER": 322.3475, "MEAN_ANOMALY": 103.5211, "EPHEMERIS_TYPE": 0, "CLASSIFICATION_TYPE": "U", "NORAD_CAT_ID": 30300, "ELEMENT_SET_NO": 999, "REV_AT_EPOCH": 96848, "BSTAR": 0.0027472287, "MEAN_MOTION_DOT": 6.797e-05, "MEAN_MOTION_DDOT": 0}, "tle": {"line1": "1 30300U 99025ZM  25337.17688928  .00006797  00000+0  27472-2 0  9992", "line2": "2 30300  99.0438  46.2048 0074347 322.3475 103.5211 14.26675343968485"}}, "geometry": {"type": "Point", "coordinates": [-139.18981115891253, -44.86518750930425]}}, {"type": "Feature", "properties": {"norad_id": 30301, "name": "FENGYUN 1C DEB", "group": "fengyun-1c-debris", "lat": -7.6389969562538385, "lon": -49.4392855622457, "alt_km": 744.5108319941874, "timestamp": "2025-12-06T18:50:10.443787+00:00", "meta": {"OBJECT_NAME": "FENGYUN 1C DEB", "OBJECT_ID": "1999-025ZN", "EPOCH": "2025-12-06T03:20:51.254304", "MEAN_MOTION": 14.52653579, "ECCENTRICITY": 0.00684735, "INCLINATION": 98.6359, "RA_OF_ASC_NODE": 131.0646, "ARG_OF_PERICENTER": 309.1416, "MEAN_ANOMALY": 106.1272, "EPHEMERIS_TYPE": 0, "CLASSIFICATION_TYPE": "U", "NORAD_CAT_ID": 30301, "ELEMENT_SET_NO": 999, "REV_AT_EPOCH": 97121, "BSTAR": 0.0059824005, "MEAN_MOTION_DOT": 0.00025307, "MEAN_MOTION_DDOT": 0}, "tle": {"line1": "1 30301U 99025ZN  25340.13948211  .00025307  00000+0  59824-2 0  9991", "line2": "2 30301  98.6359 131.0646 0068473 309.1416 106.1272 14.52653579971218"}}, "geometry": {"type": "Point", "coordinates": [-49.4392855622457, -7.6389969562538385]}}, {"type": "Feature", "properties": {"norad_id": 30302, "name": "FENGYUN 1C DEB", "group": "fengyun-1c-debris", "lat": 69.5664548262227, "lon": -135.07602161317715, "alt_km": 808.9099971350852, "timestamp": "2025-12-06T18:50:10.443798+00:00", "meta": {"OBJECT_NAME": "FENGYUN 1C DEB", "OBJECT_ID": "1999-025ZP", "EPOCH": "2025-12-05T05:06:10.850976", "MEAN_MOTION": 14.1272674, "ECCENTRICITY": 0.01041115, "INCLINATION": 98.5521, "RA_OF_ASC_NODE": 247.2442, "ARG_OF_PERICENTER": 139.3143, "MEAN_ANOMALY": 221.5867, "EPHEMERIS_TYPE": 0, "CLASSIFICATION_TYPE": "U", "NORAD_CAT_ID": 30302, "ELEMENT_SET_NO": 999, "REV_AT_EPOCH": 95937, "BSTAR": 0.0033076749, "MEAN_MOTION_DOT": 6.424e-05, "MEAN_MOTION_DDOT": 0}, "tle": {"line1": "1 30302U 99025ZP  25339.21262559  .00006424  00000+0  33077-2 0  9994", "line2": "2 30302  98.5521 247.2442 0104111 139.3143 221.5867 14.12726740959375"}}, "geometry": {"type": "Point", "coordinates": [-135.07602161317715, 69.5664548262227]}}, {"type": "Feature", "properties": {"norad_id": 30303, "name": "FENGYUN 1C DEB", "group": "fengyun-1c-debris", "lat": 77.69448764406049, "lon": -75.34465610540478, "alt_km": 849.2587893286409, "timestamp": "2025-12-06T18:50:10.443807+00:00", "meta": {"OBJECT_NAME": "FENGYUN 1C DEB", "OBJECT_ID": "1999-025ZQ", "EPOCH": "2025-12-03T04:28:21.478944", "MEAN_MOTION": 14.25648864, "ECCENTRICITY": 0.00755379, "INCLINATION": 99.0208, "RA_OF_ASC_NODE": 54.214, "ARG_OF_PERICENTER": 310.1852, "MEAN_ANOMALY": 49.273, "EPHEMERIS_TYPE": 0, "CLASSIFICATION_TYPE": "U", "NORAD_CAT_ID": 30303, "ELEMENT_SET_NO": 999, "REV_AT_EPOCH": 96899, "BSTAR": 0.0030476083, "MEAN_MOTION_DOT": 7.402e-05, "MEAN_MOTION_DDOT": 0}, "tle": {"line1": "1 30303U 99025ZQ  25337.18635971  .00007402  00000+0  30476-2 0  9998", "line2": "2 30303  99.0208  54.2140 0075537 310.1852  49.2730 14.25648864968996"}}, "geometry": {"type": "Point", "coordinates": [-75.34465610540478, 77.69448764406049]}}, {"type": "Feature", "properties": {"norad_id": 30304, "name": "FENGYUN 1C DEB", "group": "fengyun-1c-debris", "lat": 61.456913377425735, "lon": -109.85059241119654, "alt_km": 800.8801056029743, "timestamp": "2025-12-06T18:50:10.443817+00:00", "meta": {"OBJECT_NAME": "FENGYUN 1C DEB", "OBJECT_ID": "1999-025ZR", "EPOCH": "2025-12-04T23:52:42.885120", "MEAN_MOTION": 14.15433675, "ECCENTRICITY": 0.00742063, "INCLINATION": 99.0352, "RA_OF_ASC_NODE": 51.3268, "ARG_OF_PERICENTER": 71.0753, "MEAN_ANOMALY": 289.8446, "EPHEMERIS_TYPE": 0, "CLASSIFICATION_TYPE": "U", "NORAD_CAT_ID": 30304, "ELEMENT_SET_NO": 999, "REV_AT_EPOCH": 96709, "BSTAR": 0.0030761634, "MEAN_MOTION_DOT": 6.124e-05, "MEAN_MOTION_DDOT": 0}, "tle": {"line1": "1 30304U 99025ZR  25338.99494080  .00006124  00000+0  30762-2 0  9991", "line2": "2 30304  99.0352  51.3268 0074206  71.0753 289.8446 14.15433675967098"}}, "geometry": {"type": "Point", "coordinates": [-109.85059241119654, 61.456913377425735]}}, {"type": "Feature", "properties": {"norad_id": 30305, "name": "FENGYUN 1C DEB", "group": "fengyun-1c-debris", "lat": -51.979092806734826, "lon": -67.35606841340369, "alt_km": 1235.1142400288763, "timestamp": "2025-12-06T18:50:10.443827+00:00", "meta": {"OBJECT_NAME": "FENGYUN 1C DEB", "OBJECT_ID": "1999-025ZS", "EPOCH": "2025-12-06T01:45:00.205056", "MEAN_MOTION": 13.60225167, "ECCENTRICITY": 0.02655724, "INCLINATION": 98.5864, "RA_OF_ASC_NODE": 280.8767, "ARG_OF_PERICENTER": 118.4909, "MEAN_ANOMALY": 305.0428, "EPHEMERIS_TYPE": 0, "CLASSIFICATION_TYPE": "U", "NORAD_CAT_ID": 30305, "ELEMENT_SET_NO": 999, "REV_AT_EPOCH": 93683, "BSTAR": 0.00035380704, "MEAN_MOTION_DOT": 3e-06, "MEAN_MOTION_DDOT": 0}, "tle": {"line1": "1 30305U 99025ZS  25340.07291904  .00000300  00000+0  35381-3 0  9997", "line2": "2 30305  98.5864 280.8767 0265572 118.4909 305.0428 13.60225167936834"}}, "geometry": {"type": "Point", "coordinates": [-67.35606841340369, -51.979092806734826]}}]}